[{"OBJECT_NAME":"CONNECTA IOT-4","OBJECT_ID":"2024-149BJ","EPOCH":"2026-03-09T22:37:32.459520","MEAN_MOTION":15.38450788,"ECCENTRICITY":0.00046803,"INCLINATION":97.3832,"RA_OF_ASC_NODE":152.4047,"ARG_OF_PERICENTER":286.3357,"MEAN_ANOMALY":73.7373,"EPHEMERIS_TYPE":0,"CLASSIFICATION_TYPE":"U","NORAD_CAT_ID":60524,"ELEMENT_SET_NO":999,"REV_AT_EPOCH":8705,"BSTAR":0.00054636614,"MEAN_MOTION_DOT":0.00020678,"MEAN_MOTION_DDOT":0},{"OBJECT_NAME":"KUIPER-00260","OBJECT_ID":"2026-030Z","EPOCH":"2026-03-09T14:53:08.171808","MEAN_MOTION":15.36527197,"ECCENTRICITY":0.0001391,"INCLINATION":51.8799,"RA_OF_ASC_NODE":219.3544,"ARG_OF_PERICENTER":50.4119,"MEAN_ANOMALY":309.699,"EPHEMERIS_TYPE":0,"CLASSIFICATION_TYPE":"U","NORAD_CAT_ID":67787,"ELEMENT_SET_NO":999,"REV_AT_EPOCH":499,"BSTAR":0.00095058,"MEAN_MOTION_DOT":0.00034182,"MEAN_MOTION_DDOT":0}]
